{
 "generated_at": "2026-07-16T07:22:15Z",
 "sources": [
  {
   "name": "CelesTrak",
   "url": "https://celestrak.org/NORAD/elements/",
   "license": "frei verfügbar; Attribution. Ursprünglich USSPACECOM/Space-Track."
  },
  {
   "name": "GCAT (J. McDowell, planet4589.org)",
   "url": "https://planet4589.org/space/gcat/",
   "license": "CC-BY 4.0"
  }
 ],
 "satellites": [
  {
   "norad": 36036,
   "name": "SMOS",
   "intl": "2009-059A",
   "group": "resource",
   "gcat": {
    "class": "C",
    "category": "EOSCI",
    "owner": "ESA",
    "state": "I-ESA"
   },
   "omm": {
    "OBJECT_NAME": "SMOS",
    "OBJECT_ID": "2009-059A",
    "EPOCH": "2026-07-15T18:03:25.956864",
    "MEAN_MOTION": 14.39736269,
    "ECCENTRICITY": 0.00011621,
    "INCLINATION": 98.4429,
    "RA_OF_ASC_NODE": 23.6687,
    "ARG_OF_PERICENTER": 97.3009,
    "MEAN_ANOMALY": 262.8311,
    "EPHEMERIS_TYPE": 0,
    "CLASSIFICATION_TYPE": "U",
    "NORAD_CAT_ID": 36036,
    "ELEMENT_SET_NO": 999,
    "REV_AT_EPOCH": 87756,
    "BSTAR": 0.000053837416,
    "MEAN_MOTION_DOT": 0.00000125,
    "MEAN_MOTION_DDOT": 0
   }
  },
  {
   "norad": 38755,
   "name": "SPOT 6",
   "intl": "2012-047A",
   "group": "resource",
   "gcat": {
    "class": "B",
    "category": "IMG",
    "owner": "SPOT",
    "state": "F"
   },
   "omm": {
    "OBJECT_NAME": "SPOT 6",
    "OBJECT_ID": "2012-047A",
    "EPOCH": "2026-07-15T22:36:45.222912",
    "MEAN_MOTION": 14.58537959,
    "ECCENTRICITY": 0.00011163,
    "INCLINATION": 98.2112,
    "RA_OF_ASC_NODE": 263.9123,
    "ARG_OF_PERICENTER": 85.892,
    "MEAN_ANOMALY": 274.2407,
    "EPHEMERIS_TYPE": 0,
    "CLASSIFICATION_TYPE": "U",
    "NORAD_CAT_ID": 38755,
    "ELEMENT_SET_NO": 999,
    "REV_AT_EPOCH": 73724,
    "BSTAR": -0.00002831774,
    "MEAN_MOTION_DOT": -0.00000177,
    "MEAN_MOTION_DDOT": 0
   }
  },
  {
   "norad": 40053,
   "name": "SPOT 7",
   "intl": "2014-034A",
   "group": "resource",
   "gcat": {
    "class": null,
    "category": null,
    "owner": null,
    "state": null
   },
   "omm": {
    "OBJECT_NAME": "SPOT 7",
    "OBJECT_ID": "2014-034A",
    "EPOCH": "2026-07-15T22:43:17.563584",
    "MEAN_MOTION": 14.60980682,
    "ECCENTRICITY": 0.00016039,
    "INCLINATION": 98.0619,
    "RA_OF_ASC_NODE": 258.6952,
    "ARG_OF_PERICENTER": 94.1131,
    "MEAN_ANOMALY": 266.0253,
    "EPHEMERIS_TYPE": 0,
    "CLASSIFICATION_TYPE": "U",
    "NORAD_CAT_ID": 40053,
    "ELEMENT_SET_NO": 999,
    "REV_AT_EPOCH": 64133,
    "BSTAR": 0.000019667332,
    "MEAN_MOTION_DOT": 5.1e-7,
    "MEAN_MOTION_DDOT": 0
   }
  },
  {
   "norad": 37841,
   "name": "SRMSAT",
   "intl": "2011-058D",
   "group": "resource",
   "gcat": {
    "class": "A",
    "category": "TECH",
    "owner": "SRMU",
    "state": "IN"
   },
   "omm": {
    "OBJECT_NAME": "SRMSAT",
    "OBJECT_ID": "2011-058D",
    "EPOCH": "2026-07-15T10:31:19.716960",
    "MEAN_MOTION": 14.1158113,
    "ECCENTRICITY": 0.00117659,
    "INCLINATION": 19.971,
    "RA_OF_ASC_NODE": 248.4743,
    "ARG_OF_PERICENTER": 153.8769,
    "MEAN_ANOMALY": 331.6515,
    "EPHEMERIS_TYPE": 0,
    "CLASSIFICATION_TYPE": "U",
    "NORAD_CAT_ID": 37841,
    "ELEMENT_SET_NO": 999,
    "REV_AT_EPOCH": 76181,
    "BSTAR": 0.000037014491,
    "MEAN_MOTION_DOT": 0.00000333,
    "MEAN_MOTION_DDOT": 0
   }
  },
  {
   "norad": 53815,
   "name": "STRIX-1",
   "intl": "2022-113A",
   "group": "sar",
   "gcat": {
    "class": "B",
    "category": "IMG-R",
    "owner": "SYNSP",
    "state": "J"
   },
   "omm": {
    "OBJECT_NAME": "STRIX-1",
    "OBJECT_ID": "2022-113A",
    "EPOCH": "2026-07-15T23:04:04.116864",
    "MEAN_MOTION": 15.41023687,
    "ECCENTRICITY": 0.00055307,
    "INCLINATION": 97.4477,
    "RA_OF_ASC_NODE": 259.521,
    "ARG_OF_PERICENTER": 130.051,
    "MEAN_ANOMALY": 230.1222,
    "EPHEMERIS_TYPE": 0,
    "CLASSIFICATION_TYPE": "U",
    "NORAD_CAT_ID": 53815,
    "ELEMENT_SET_NO": 999,
    "REV_AT_EPOCH": 21187,
    "BSTAR": 0.00033604371,
    "MEAN_MOTION_DOT": 0.00013795,
    "MEAN_MOTION_DDOT": 0
   }
  },
  {
   "norad": 62406,
   "name": "STRIX-2",
   "intl": "2024-248A",
   "group": "sar",
   "gcat": {
    "class": "B",
    "category": "IMG-R",
    "owner": "SYNSP",
    "state": "J"
   },
   "omm": {
    "OBJECT_NAME": "STRIX-2",
    "OBJECT_ID": "2024-248A",
    "EPOCH": "2026-07-15T23:36:12.696192",
    "MEAN_MOTION": 15.09194848,
    "ECCENTRICITY": 0.00137338,
    "INCLINATION": 97.6299,
    "RA_OF_ASC_NODE": 152.4641,
    "ARG_OF_PERICENTER": 232.6322,
    "MEAN_ANOMALY": 127.3656,
    "EPHEMERIS_TYPE": 0,
    "CLASSIFICATION_TYPE": "U",
    "NORAD_CAT_ID": 62406,
    "ELEMENT_SET_NO": 999,
    "REV_AT_EPOCH": 8593,
    "BSTAR": 0.00014927359,
    "MEAN_MOTION_DOT": 0.00002312,
    "MEAN_MOTION_DDOT": 0
   }
  },
  {
   "norad": 59224,
   "name": "STRIX-3",
   "intl": "2024-047A",
   "group": "sar",
   "gcat": {
    "class": "B",
    "category": "IMG-R",
    "owner": "SYNSP",
    "state": "J"
   },
   "omm": {
    "OBJECT_NAME": "STRIX-3",
    "OBJECT_ID": "2024-047A",
    "EPOCH": "2026-07-15T22:53:47.898240",
    "MEAN_MOTION": 15.19817344,
    "ECCENTRICITY": 0.00119026,
    "INCLINATION": 97.6636,
    "RA_OF_ASC_NODE": 173.065,
    "ARG_OF_PERICENTER": 332.146,
    "MEAN_ANOMALY": 27.9136,
    "EPHEMERIS_TYPE": 0,
    "CLASSIFICATION_TYPE": "U",
    "NORAD_CAT_ID": 59224,
    "ELEMENT_SET_NO": 999,
    "REV_AT_EPOCH": 12911,
    "BSTAR": 0.00022481927,
    "MEAN_MOTION_DOT": 0.00004753,
    "MEAN_MOTION_DDOT": 0
   }
  },
  {
   "norad": 60352,
   "name": "STRIX-4",
   "intl": "2024-137A",
   "group": "sar",
   "gcat": {
    "class": "B",
    "category": "IMG-R",
    "owner": "SYNSP",
    "state": "J"
   },
   "omm": {
    "OBJECT_NAME": "STRIX-4",
    "OBJECT_ID": "2024-137A",
    "EPOCH": "2026-07-15T22:52:56.484192",
    "MEAN_MOTION": 15.33327789,
    "ECCENTRICITY": 0.00162017,
    "INCLINATION": 43.0152,
    "RA_OF_ASC_NODE": 121.2455,
    "ARG_OF_PERICENTER": 137.0364,
    "MEAN_ANOMALY": 223.1758,
    "EPHEMERIS_TYPE": 0,
    "CLASSIFICATION_TYPE": "U",
    "NORAD_CAT_ID": 60352,
    "ELEMENT_SET_NO": 999,
    "REV_AT_EPOCH": 10843,
    "BSTAR": 0.00029446709,
    "MEAN_MOTION_DOT": 0.00009452,
    "MEAN_MOTION_DDOT": 0
   }
  },
  {
   "norad": 65971,
   "name": "STRIX-5",
   "intl": "2025-229A",
   "group": "sar",
   "gcat": {
    "class": "B",
    "category": "IMG-R",
    "owner": "SYNSP",
    "state": "J"
   },
   "omm": {
    "OBJECT_NAME": "STRIX-5",
    "OBJECT_ID": "2025-229A",
    "EPOCH": "2026-07-15T06:00:27.978912",
    "MEAN_MOTION": 15.04589068,
    "ECCENTRICITY": 0.00378707,
    "INCLINATION": 41.9273,
    "RA_OF_ASC_NODE": 131.7609,
    "ARG_OF_PERICENTER": 237.8606,
    "MEAN_ANOMALY": 121.8542,
    "EPHEMERIS_TYPE": 0,
    "CLASSIFICATION_TYPE": "U",
    "NORAD_CAT_ID": 65971,
    "ELEMENT_SET_NO": 999,
    "REV_AT_EPOCH": 4120,
    "BSTAR": 0.00013606849,
    "MEAN_MOTION_DOT": 0.00001775,
    "MEAN_MOTION_DDOT": 0
   }
  },
  {
   "norad": 68291,
   "name": "STRIX-6",
   "intl": "2026-056A",
   "group": "sar",
   "gcat": {
    "class": "B",
    "category": "IMG-R",
    "owner": "SYNSP",
    "state": "J"
   },
   "omm": {
    "OBJECT_NAME": "STRIX-6",
    "OBJECT_ID": "2026-056A",
    "EPOCH": "2026-07-15T18:27:01.548288",
    "MEAN_MOTION": 15.00329312,
    "ECCENTRICITY": 0.00166257,
    "INCLINATION": 50.2827,
    "RA_OF_ASC_NODE": 214.6701,
    "ARG_OF_PERICENTER": 353.2933,
    "MEAN_ANOMALY": 6.7792,
    "EPHEMERIS_TYPE": 0,
    "CLASSIFICATION_TYPE": "U",
    "NORAD_CAT_ID": 68291,
    "ELEMENT_SET_NO": 999,
    "REV_AT_EPOCH": 1756,
    "BSTAR": 0.000099925822,
    "MEAN_MOTION_DOT": 0.00001002,
    "MEAN_MOTION_DDOT": 0
   }
  }
 ]
}
